$$SOE
2461288.500000000, A.D. 2026-Sep-05 00:00:00.0000, 3.456803846152512E+08, -5.812906747616602E+08, -1.251317453249738E+07,
2461295.500000000, A.D. 2026-Sep-12 00:00:00.0000, 3.524837918370195E+08, -5.772375053143723E+08, -1.232545868732363E+07,
2461302.500000000, A.D. 2026-Sep-19 00:00:00.0000, 3.592319428574646E+08, -5.730938401190333E+08, -1.213580995970991E+07,
2461309.500000000, A.D. 2026-Sep-26 00:00:00.0000, 3.659237839275862E+08, -5.688603399520257E+08, -1.194425818945628E+07,
2461316.500000000, A.D. 2026-Oct-03 00:00:00.0000, 3.725582674114680E+08, -5.645376746318363E+08, -1.175083343652007E+07,
2461323.500000000, A.D. 2026-Oct-10 00:00:00.0000, 3.791343517476227E+08, -5.601265228865323E+08, -1.155556597245532E+07,
2461330.500000000, A.D. 2026-Oct-17 00:00:00.0000, 3.856510013775799E+08, -5.556275722979228E+08, -1.135848627558786E+07,
2461337.500000000, A.D. 2026-Oct-24 00:00:00.0000, 3.921071866659852E+08, -5.510415193449700E+08, -1.115962503390771E+07,
2461344.500000000, A.D. 2026-Oct-31 00:00:00.0000, 3.985018839109041E+08, -5.463690696129661E+08, -1.095901317006236E+07,
2461351.500000000, A.D. 2026-Nov-07 00:00:00.0000, 4.048340757834320E+08, -5.416109380942113E+08, -1.075668191333178E+07,
2461358.500000000, A.D. 2026-Nov-14 00:00:00.0000, 4.111027523976831E+08, -5.367678486927779E+08, -1.055266286427110E+07,
2461365.500000000, A.D. 2026-Nov-21 00:00:00.0000, 4.173069111994895E+08, -5.318405322516834E+08, -1.034698782986990E+07,
2461372.500000000, A.D. 2026-Nov-28 00:00:00.0000, 4.234455546754861E+08, -5.268297261104896E+08, -1.013968858325109E+07,
2461379.500000000, A.D. 2026-Dec-05 00:00:00.0000, 4.295176895019444E+08, -5.217361758492162E+08, -9.930796933258802E+06,
2461386.500000000, A.D. 2026-Dec-12 00:00:00.0000, 4.355223272984731E+08, -5.165606361073532E+08, -9.720344864541709E+06,
2461393.500000000, A.D. 2026-Dec-19 00:00:00.0000, 4.414584850995485E+08, -5.113038704716038E+08, -9.508364574240506E+06,
2461400.500000000, A.D. 2026-Dec-26 00:00:00.0000, 4.473251854015272E+08, -5.059666513004737E+08, -9.294888462929994E+06,
2461407.500000000, A.D. 2027-Jan-02 00:00:00.0000, 4.531214560607680E+08, -5.005497596767246E+08, -9.079949120538741E+06,
2461414.500000000, A.D. 2027-Jan-09 00:00:00.0000, 4.588463301592287E+08, -4.950539854676734E+08, -8.863579316200167E+06,
2461421.500000000, A.D. 2027-Jan-16 00:00:00.0000, 4.644988458718327E+08, -4.894801274846878E+08, -8.645811994479865E+06,
2461428.500000000, A.D. 2027-Jan-23 00:00:00.0000, 4.700780463801605E+08, -4.838289937816142E+08, -8.426680285423309E+06,
2461435.500000000, A.D. 2027-Jan-30 00:00:00.0000, 4.755829800186087E+08, -4.781014021399215E+08, -8.206217549589306E+06,
2461442.500000000, A.D. 2027-Feb-06 00:00:00.0000, 4.810127010762889E+08, -4.722981804005291E+08, -7.984457469329804E+06,
2461449.500000000, A.D. 2027-Feb-13 00:00:00.0000, 4.863662707931463E+08, -4.664201654228691E+08, -7.761434044530690E+06,
2461456.500000000, A.D. 2027-Feb-20 00:00:00.0000, 4.916427561852694E+08, -4.604682014625852E+08, -7.537181340805084E+06,
2461463.500000000, A.D. 2027-Feb-27 00:00:00.0000, 4.968412280941202E+08, -4.544431411815485E+08, -7.311733381010383E+06,
2461470.500000000, A.D. 2027-Mar-06 00:00:00.0000, 5.019607614771401E+08, -4.483458473672713E+08, -7.085124300005615E+06,
2461477.500000000, A.D. 2027-Mar-13 00:00:00.0000, 5.070004363394741E+08, -4.421771933121817E+08, -6.857388448581040E+06,
2461484.500000000, A.D. 2027-Mar-20 00:00:00.0000, 5.119593381775220E+08, -4.359380626875233E+08, -6.628560411346316E+06,
2461491.500000000, A.D. 2027-Mar-27 00:00:00.0000, 5.168365581364303E+08, -4.296293494609266E+08, -6.398675002094656E+06,
2461498.500000000, A.D. 2027-Apr-03 00:00:00.0000, 5.216311930844966E+08, -4.232519579054809E+08, -6.167767259252965E+06,
2461505.500000000, A.D. 2027-Apr-10 00:00:00.0000, 5.263423456657246E+08, -4.168068026773234E+08, -5.935872445214808E+06,
2461512.500000000, A.D. 2027-Apr-17 00:00:00.0000, 5.309691243524615E+08, -4.102948089760846E+08, -5.703026052794546E+06,
2461519.500000000, A.D. 2027-Apr-24 00:00:00.0000, 5.355106435770532E+08, -4.037169128502070E+08, -5.469263831184655E+06,
2461526.500000000, A.D. 2027-May-01 00:00:00.0000, 5.399660242418950E+08, -3.970740616189526E+08, -5.234621856650203E+06,
2461533.500000000, A.D. 2027-May-08 00:00:00.0000, 5.443343949153386E+08, -3.903672136622407E+08, -4.999136614992470E+06,
2461540.500000000, A.D. 2027-May-15 00:00:00.0000, 5.486148922170359E+08, -3.835973366247469E+08, -4.762844880534559E+06,
2461547.500000000, A.D. 2027-May-22 00:00:00.0000, 5.528066588291761E+08, -3.767654066260171E+08, -4.525783459951431E+06,
2461554.500000000, A.D. 2027-May-29 00:00:00.0000, 5.569088424895257E+08, -3.698724099447438E+08, -4.287989228686720E+06,
2461561.500000000, A.D. 2027-Jun-05 00:00:00.0000, 5.609205968513333E+08, -3.629193440452656E+08, -4.049499285084084E+06,
2461568.500000000, A.D. 2027-Jun-12 00:00:00.0000, 5.648410822029893E+08, -3.559072175146195E+08, -3.810351002687767E+06,
2461575.500000000, A.D. 2027-Jun-19 00:00:00.0000, 5.686694657166439E+08, -3.488370498453563E+08, -3.570582026597634E+06,
2461582.500000000, A.D. 2027-Jun-26 00:00:00.0000, 5.724049215052708E+08, -3.417098713255348E+08, -3.330230260669708E+06,
2461589.500000000, A.D. 2027-Jul-03 00:00:00.0000, 5.760466306203380E+08, -3.345267230276071E+08, -3.089333856782168E+06,
2461596.500000000, A.D. 2027-Jul-10 00:00:00.0000, 5.795937810269371E+08, -3.272886568874454E+08, -2.847931208594069E+06,
2461603.500000000, A.D. 2027-Jul-17 00:00:00.0000, 5.830455675926949E+08, -3.199967359123237E+08, -2.606060956058115E+06,
2461610.500000000, A.D. 2027-Jul-24 00:00:00.0000, 5.864011922467806E+08, -3.126520345805390E+08, -2.363762019935012E+06,
2461617.500000000, A.D. 2027-Jul-31 00:00:00.0000, 5.896598647203538E+08, -3.052556391968885E+08, -2.121073684582502E+06,
2461624.500000000, A.D. 2027-Aug-07 00:00:00.0000, 5.928208036679349E+08, -2.978086470520135E+08, -1.878035616290987E+06,
2461631.500000000, A.D. 2027-Aug-14 00:00:00.0000, 5.958832358690134E+08, -2.903121646390510E+08, -1.634687626663625E+06,
2461638.500000000, A.D. 2027-Aug-21 00:00:00.0000, 5.988463941280456E+08, -2.827673082919950E+08, -1.391069512639925E+06,
2461645.500000000, A.D. 2027-Aug-28 00:00:00.0000, 6.017095173034705E+08, -2.751752060422776E+08, -1.147221189580083E+06,
2461652.500000000, A.D. 2027-Sep-04 00:00:00.0000, 6.044718512845594E+08, -2.675369981908472E+08, -9.031828047078550E+05,
2461659.500000000, A.D. 2027-Sep-11 00:00:00.0000, 6.071326495210019E+08, -2.598538372568385E+08, -6.589947571673542E+05,
2461666.500000000, A.D. 2027-Sep-18 00:00:00.0000, 6.096911732385968E+08, -2.521268879527640E+08, -4.146976902765632E+05,
2461673.500000000, A.D. 2027-Sep-25 00:00:00.0000, 6.121466915700940E+08, -2.443573272634712E+08, -1.703324835694432E+05,
2461680.500000000, A.D. 2027-Oct-02 00:00:00.0000, 6.144984816764821E+08, -2.365463446008362E+08, 7.405975048069656E+04,
2461687.500000000, A.D. 2027-Oct-09 00:00:00.0000, 6.167458288814735E+08, -2.286951420382222E+08, 3.184376623800546E+05,
2461694.500000000, A.D. 2027-Oct-16 00:00:00.0000, 6.188880268826337E+08, -2.208049346791326E+08, 5.627596436697394E+05,
2461701.500000000, A.D. 2027-Oct-23 00:00:00.0000, 6.209243782991875E+08, -2.128769511652709E+08, 8.069837626147270E+05,
2461708.500000000, A.D. 2027-Oct-30 00:00:00.0000, 6.228541959313811E+08, -2.049124337130494E+08, 1.051067672889173E+06,
2461715.500000000, A.D. 2027-Nov-06 00:00:00.0000, 6.246768035685254E+08, -1.969126365498531E+08, 1.294968694096833E+06,
2461722.500000000, A.D. 2027-Nov-13 00:00:00.0000, 6.263915343610139E+08, -1.888788248262254E+08, 1.538644076533839E+06,
2461729.500000000, A.D. 2027-Nov-20 00:00:00.0000, 6.279977296582202E+08, -1.808122761899280E+08, 1.782051005379334E+06,
2461736.500000000, A.D. 2027-Nov-27 00:00:00.0000, 6.294947399295948E+08, -1.727142820570666E+08, 2.025146438224986E+06,
2461743.500000000, A.D. 2027-Dec-04 00:00:00.0000, 6.308819257455167E+08, -1.645861476660404E+08, 2.267887036276370E+06,
2461750.500000000, A.D. 2027-Dec-11 00:00:00.0000, 6.321586582674663E+08, -1.564291918781608E+08, 2.510229161015265E+06,
2461757.500000000, A.D. 2027-Dec-18 00:00:00.0000, 6.333243195224316E+08, -1.482447470638947E+08, 2.752128883469179E+06,
2461764.500000000, A.D. 2027-Dec-25 00:00:00.0000, 6.343783026133347E+08, -1.400341590766083E+08, 2.993541992049225E+06,
2461771.500000000, A.D. 2028-Jan-01 00:00:00.0000, 6.353200119067212E+08, -1.317987872987893E+08, 3.234423996441931E+06,
$$EOE